{
  "type": "FeatureCollection",
  "generator": "overpass-turbo",
  "copyright": "The data included in this document is from www.openstreetmap.org. The data is made available under ODbL.",
  "timestamp": "2014-08-29T12:05:01Z",
  "features": [
    {
      "type": "Feature",
      "id": "way/143470919",
      "properties": {
        "@id": "way/143470919",
        "amenity": "grave_yard",
        "denomination": "catholic",
        "religion": "christian"
      },
      "geometry": {
        "type": "Polygon",
        "coordinates": [
          [
            [
              5.5214413,
              49.71625
            ],
            [
              5.5211413,
              49.7163176
            ],
            [
              5.5208957,
              49.7158619
            ],
            [
              5.5211957,
              49.7157943
            ],
            [
              5.5214413,
              49.71625
            ]
          ]
        ]
      }
    },
    {
      "type": "Feature",
      "id": "way/143482832",
      "properties": {
        "@id": "way/143482832",
        "amenity": "parking"
      },
      "geometry": {
        "type": "Polygon",
        "coordinates": [
          [
            [
              5.5383273,
              49.7276112
            ],
            [
              5.5383167,
              49.7275941
            ],
            [
              5.5383889,
              49.7274623
            ],
            [
              5.5384311,
              49.7272485
            ],
            [
              5.5385313,
              49.7265027
            ],
            [
              5.5388496,
              49.7268063
            ],
            [
              5.5389464,
              49.7269029
            ],
            [
              5.5389956,
              49.7269643
            ],
            [
              5.5390097,
              49.7270257
            ],
            [
              5.5389692,
              49.7271428
            ],
            [
              5.5387969,
              49.7275782
            ],
            [
              5.5390273,
              49.72761
            ],
            [
              5.5390167,
              49.7276601
            ],
            [
              5.5392208,
              49.7276973
            ],
            [
              5.5393768,
              49.7277257
            ],
            [
              5.5394036,
              49.7277306
            ],
            [
              5.5392877,
              49.7279678
            ],
            [
              5.5389962,
              49.7279226
            ],
            [
              5.5387339,
              49.7286989
            ],
            [
              5.5382966,
              49.7286386
            ],
            [
              5.5382792,
              49.72816
            ],
            [
              5.5383724,
              49.7277831
            ],
            [
              5.5383273,
              49.7276112
            ]
          ]
        ]
      }
    },
    {
      "type": "Feature",
      "id": "way/219932155",
      "properties": {
        "@id": "way/219932155",
        "amenity": "bicycle_parking",
        "bicycle_parking": "shed",
        "covered": "yes"
      },
      "geometry": {
        "type": "Polygon",
        "coordinates": [
          [
            [
              5.5392208,
              49.7276973
            ],
            [
              5.5392427,
              49.7276431
            ],
            [
              5.5394005,
              49.7276693
            ],
            [
              5.5393768,
              49.7277257
            ],
            [
              5.5392208,
              49.7276973
            ]
          ]
        ]
      }
    },
    {
      "type": "Feature",
      "id": "node/745759826",
      "properties": {
        "@id": "node/745759826",
        "addr:city": "Marbehan",
        "addr:country": "BE",
        "addr:housenumber": "11b",
        "addr:postcode": "6724",
        "addr:street": "Rue des Anglières",
        "name": "Spar",
        "opening_hours": "Mo-Sa 06:00-12:00,14:00-18:30;Su 6:00-12:00",
        "phone": "+32 63 41 11 11",
        "shop": "supermarket"
      },
      "geometry": {
        "type": "Point",
        "coordinates": [
          5.5381334,
          49.7243048
        ]
      }
    },
    {
      "type": "Feature",
      "id": "node/745759986",
      "properties": {
        "@id": "node/745759986",
        "amenity": "place_of_worship",
        "denomination": "catholic",
        "fixme": "add name",
        "religion": "christian"
      },
      "geometry": {
        "type": "Point",
        "coordinates": [
          5.5352462,
          49.7256884
        ]
      }
    },
    {
      "type": "Feature",
      "id": "node/745760079",
      "properties": {
        "@id": "node/745760079",
        "addr:city": "Marbehan",
        "addr:country": "BE",
        "addr:housenumber": "1",
        "addr:postcode": "6724",
        "addr:street": "Place de la Gare",
        "amenity": "pub",
        "name": "Café de la Gare",
        "phone": "+32 63 60 22 81"
      },
      "geometry": {
        "type": "Point",
        "coordinates": [
          5.5383654,
          49.7266174
        ]
      }
    },
    {
      "type": "Feature",
      "id": "node/746727358",
      "properties": {
        "@id": "node/746727358",
        "amenity": "library",
        "fixme": "add name"
      },
      "geometry": {
        "type": "Point",
        "coordinates": [
          5.5391772,
          49.7268028
        ]
      }
    },
    {
      "type": "Feature",
      "id": "node/824082224",
      "properties": {
        "@id": "node/824082224",
        "amenity": "hunting_stand"
      },
      "geometry": {
        "type": "Point",
        "coordinates": [
          5.5225824,
          49.7305713
        ]
      }
    },
    {
      "type": "Feature",
      "id": "node/824082517",
      "properties": {
        "@id": "node/824082517",
        "amenity": "place_of_worship",
        "denomination": "catholic",
        "name": "Chapelle de Chenel",
        "religion": "christian"
      },
      "geometry": {
        "type": "Point",
        "coordinates": [
          5.5273278,
          49.7321411
        ]
      }
    },
    {
      "type": "Feature",
      "id": "node/2290603666",
      "properties": {
        "@id": "node/2290603666",
        "addr:city": "Marbehan",
        "addr:country": "BE",
        "addr:housenumber": "46",
        "addr:postcode": "6724",
        "addr:street": "Grand'Rue",
        "name": "Boulangerie Jacob",
        "pastry_shop": "yes",
        "phone": "+32 63 41 11 88",
        "shop": "bakery"
      },
      "geometry": {
        "type": "Point",
        "coordinates": [
          5.535758,
          49.7242511
        ]
      }
    },
    {
      "type": "Feature",
      "id": "node/2290603667",
      "properties": {
        "@id": "node/2290603667",
        "addr:city": "Marbehan",
        "addr:country": "BE",
        "addr:housenumber": "52",
        "addr:postcode": "6724",
        "addr:street": "Grand'Rue",
        "amenity": "fast_food",
        "building": "yes",
        "cuisine": "friture",
        "name": "Friterie les Simpson",
        "phone": "+32 496 08 35 31"
      },
      "geometry": {
        "type": "Point",
        "coordinates": [
          5.5355246,
          49.72386
        ]
      }
    },
    {
      "type": "Feature",
      "id": "node/2290603669",
      "properties": {
        "@id": "node/2290603669",
        "addr:city": "Marbehan",
        "addr:country": "BE",
        "addr:postcode": "6724",
        "addr:street": "Grand'Rue",
        "building": "yes",
        "name": "Au P'tit Bénéfice",
        "opening_hours": "Mo 13:30-18:30; Tu-Sa 08:30-12:00,13:30-18:30",
        "phone": "+ 32 63 41 10 18",
        "shop": "doityourself",
        "website": "http://www.petitbenefice.com/"
      },
      "geometry": {
        "type": "Point",
        "coordinates": [
          5.5349756,
          49.7234813
        ]
      }
    },
    {
      "type": "Feature",
      "id": "node/2290603670",
      "properties": {
        "@id": "node/2290603670",
        "addr:city": "Marbehan",
        "addr:country": "BE",
        "addr:housenumber": "73b",
        "addr:postcode": "6724",
        "addr:street": "Grand'Rue",
        "building": "yes",
        "name": "Boucherie Gillardin",
        "phone": "+32 63 41 12 17",
        "shop": "butcher"
      },
      "geometry": {
        "type": "Point",
        "coordinates": [
          5.5351128,
          49.7232298
        ]
      }
    },
    {
      "type": "Feature",
      "id": "node/2290603671",
      "properties": {
        "@id": "node/2290603671",
        "amenity": "telephone",
        "covered": "booth"
      },
      "geometry": {
        "type": "Point",
        "coordinates": [
          5.5356244,
          49.7238553
        ]
      }
    },
    {
      "type": "Feature",
      "id": "node/2290603672",
      "properties": {
        "@id": "node/2290603672",
        "addr:city": "Marbehan",
        "addr:country": "BE",
        "addr:housenumber": "36",
        "addr:postcode": "6724",
        "addr:street": "Grand'Rue",
        "amenity": "pharmacy",
        "name": "Pharmacie Berg",
        "opening_hours": "Mo-Fr 09:00-12:30, 14:00-19:00; Sa 09:00-12:30",
        "phone": "+32 63 41 01 11"
      },
      "geometry": {
        "type": "Point",
        "coordinates": [
          5.5361746,
          49.7245412
        ]
      }
    },
    {
      "type": "Feature",
      "id": "node/2503613730",
      "properties": {
        "@id": "node/2503613730",
        "amenity": "community_center",
        "name": "Complexe du Bois des Isles"
      },
      "geometry": {
        "type": "Point",
        "coordinates": [
          5.5299927,
          49.7241642
        ]
      }
    },
    {
      "type": "Feature",
      "id": "node/2506011340",
      "properties": {
        "@id": "node/2506011340",
        "addr:city": "Marbehan",
        "addr:housenumber": "89",
        "addr:postcode": "6724",
        "addr:street": "Grand'Rue",
        "name": "Garage Lapraille",
        "phone": "+ 32 63 41 31 00",
        "shop": "car",
        "website": "http://www.garagelapraille.be/"
      },
      "geometry": {
        "type": "Point",
        "coordinates": [
          5.53353,
          49.7207615
        ]
      }
    },
    {
      "type": "Feature",
      "id": "node/2613122042",
      "properties": {
        "@id": "node/2613122042",
        "addr:city": "Marbehan",
        "addr:country": "BE",
        "addr:housenumber": "37",
        "addr:postcode": "6724",
        "addr:street": "Rue de la Rivière",
        "amenity": "school",
        "name": "École communale de Marbehan",
        "phone": "+32 63 41 11 43"
      },
      "geometry": {
        "type": "Point",
        "coordinates": [
          5.5312673,
          49.7271404
        ]
      }
    },
    {
      "type": "Feature",
      "id": "node/2613122760",
      "properties": {
        "@id": "node/2613122760",
        "addr:city": "Marbehan",
        "addr:country": "BE",
        "addr:housenumber": "1",
        "addr:postcode": "6724",
        "addr:street": "Rue des Prés",
        "amenity": "school",
        "name": "École fondamentale de Marbehan - L'École des Sourires",
        "phone": "+32 63 41 11 73",
        "website": "http://www.ecoles.cfwb.be/efacfmarbehan/"
      },
      "geometry": {
        "type": "Point",
        "coordinates": [
          5.5330848,
          49.7224974
        ]
      }
    },
    {
      "type": "Feature",
      "id": "node/2622588363",
      "properties": {
        "@id": "node/2622588363",
        "addr:city": "Marbehan",
        "addr:housenumber": "8",
        "addr:postcode": "6724",
        "addr:street": "Place de la Gare",
        "amenity": "restaurant",
        "cuisine": "brasserie",
        "name": "Chez Loulou et Carabosse",
        "opening_hours": "6h-23h",
        "phone": "+32 495 88 98 19"
      },
      "geometry": {
        "type": "Point",
        "coordinates": [
          5.5393411,
          49.7274845
        ]
      }
    },
    {
      "type": "Feature",
      "id": "node/2622675234",
      "properties": {
        "@id": "node/2622675234",
        "addr:city": "Marbehan",
        "addr:housenumber": "12",
        "addr:postcode": "6724",
        "addr:street": "Grand'Rue",
        "name": "Tanahô",
        "phone": "+32 63 40 10 05",
        "shop": "beauty",
        "website": "http://www.tanaho.com"
      },
      "geometry": {
        "type": "Point",
        "coordinates": [
          5.5376611,
          49.7258812
        ]
      }
    },
    {
      "type": "Feature",
      "id": "node/2723280867",
      "properties": {
        "@id": "node/2723280867",
        "addr:city": "Marbehan",
        "addr:country": "BE",
        "addr:housenumber": "15",
        "addr:postcode": "6724",
        "addr:street": "Rue de l'Église",
        "building": "yes",
        "name": "Optique Krys - Marc Meert",
        "phone": "+32 63 41 18 68",
        "shop": "optician"
      },
      "geometry": {
        "type": "Point",
        "coordinates": [
          5.5353968,
          49.7249452
        ]
      }
    },
    {
      "type": "Feature",
      "id": "node/3010073570",
      "properties": {
        "@id": "node/3010073570",
        "addr:city": "Marbehan",
        "addr:country": "BE",
        "addr:housenumber": "29",
        "addr:postcode": "6724",
        "addr:street": "Rue de l'Église",
        "amenity": "pub",
        "name": "Café du Centre",
        "phone": "+32 63 41 12 52"
      },
      "geometry": {
        "type": "Point",
        "coordinates": [
          5.5349123,
          49.7252567
        ]
      }
    },
    {
      "type": "Feature",
      "id": "node/3045110656",
      "properties": {
        "@id": "node/3045110656",
        "addr:city": "Marbehan",
        "addr:country": "BE",
        "addr:housenumber": "14",
        "addr:postcode": "6724",
        "addr:street": "Rue des Anglières",
        "amenity": "kindergarten",
        "building": "yes",
        "name": "Les Bambins Malins",
        "phone": "+32  493 66 66 99",
        "website": "http://www.bambins-malins.be/"
      },
      "geometry": {
        "type": "Point",
        "coordinates": [
          5.538151,
          49.7239843
        ]
      }
    }
  ]
}